{"type": "FeatureCollection", "features": [ {"type": "Feature", "properties": {"norad_id": 64902, "name": "CO3D 2", "group": "resource", "lat": 36.429153990780186, "lon": -102.54464410022985, "alt_km": 502.5661241455082, "timestamp": "2025-12-21T18:54:58.151397+00:00", "meta": {"OBJECT_NAME": "CO3D 2", "OBJECT_ID": "2025-156D", "EPOCH": "2025-12-21T13:32:58.153344", "MEAN_MOTION": 15.20196251, "ECCENTRICITY": 8.247e-05, "INCLINATION": 97.4341, "RA_OF_ASC_NODE": 71.7048, "ARG_OF_PERICENTER": 74.4458, "MEAN_ANOMALY": 285.6869, "EPHEMERIS_TYPE": 0, "CLASSIFICATION_TYPE": "U", "NORAD_CAT_ID": 64902, "ELEMENT_SET_NO": 999, "REV_AT_EPOCH": 2254, "BSTAR": 0.00013548973, "MEAN_MOTION_DOT": 2.866e-05, "MEAN_MOTION_DDOT": 0}, "tle": {"line1": "1 64902U 25156D   25355.56456196  .00002866  00000+0  13549-3 0  9998", "line2": "2 64902  97.4341  71.7048 0000824  74.4458 285.6869 15.20196251 22543"}}, "geometry": {"type": "Point", "coordinates": [-102.54464410022985, 36.429153990780186]}}, {"type": "Feature", "properties": {"norad_id": 64903, "name": "CO3D 1", "group": "resource", "lat": 37.283576692682736, "lon": -102.37006570888798, "alt_km": 502.3041761239574, "timestamp": "2025-12-21T18:54:58.151407+00:00", "meta": {"OBJECT_NAME": "CO3D 1", "OBJECT_ID": "2025-156E", "EPOCH": "2025-12-21T15:07:59.058624", "MEAN_MOTION": 15.20209801, "ECCENTRICITY": 8.9e-05, "INCLINATION": 97.4341, "RA_OF_ASC_NODE": 71.7693, "ARG_OF_PERICENTER": 80.4499, "MEAN_ANOMALY": 279.6837, "EPHEMERIS_TYPE": 0, "CLASSIFICATION_TYPE": "U", "NORAD_CAT_ID": 64903, "ELEMENT_SET_NO": 999, "REV_AT_EPOCH": 2255, "BSTAR": 0.00024034245, "MEAN_MOTION_DOT": 5.14e-05, "MEAN_MOTION_DDOT": 0}, "tle": {"line1": "1 64903U 25156E   25355.63054466  .00005140  00000+0  24034-3 0  9990", "line2": "2 64903  97.4341  71.7693 0000890  80.4499 279.6837 15.20209801 22550"}}, "geometry": {"type": "Point", "coordinates": [-102.37006570888798, 37.283576692682736]}}, {"type": "Feature", "properties": {"norad_id": 66514, "name": "SENTINEL-6B", "group": "resource", "lat": 61.47525268651593, "lon": -161.4731528254826, "alt_km": 1334.5892544039216, "timestamp": "2025-12-21T18:54:58.151416+00:00", "meta": {"OBJECT_NAME": "SENTINEL-6B", "OBJECT_ID": "2025-264A", "EPOCH": "2025-12-12T06:01:21.427680", "MEAN_MOTION": 12.81479575, "ECCENTRICITY": 0.0007848, "INCLINATION": 66.0385, "RA_OF_ASC_NODE": 163.4531, "ARG_OF_PERICENTER": 270.1375, "MEAN_ANOMALY": 89.8741, "EPHEMERIS_TYPE": 0, "CLASSIFICATION_TYPE": "U", "NORAD_CAT_ID": 66514, "ELEMENT_SET_NO": 999, "REV_AT_EPOCH": 322, "BSTAR": 0.00018195, "MEAN_MOTION_DOT": -1.9e-07, "MEAN_MOTION_DDOT": 0}, "tle": {"line1": "1 66514U 25264A   25346.25094245 -.00000019  00000+0  18195-3 0  9999", "line2": "2 66514  66.0385 163.4531 0007848 270.1375  89.8741 12.81479575  3220"}}, "geometry": {"type": "Point", "coordinates": [-161.4731528254826, 61.47525268651593]}}]}